1 42818U 17041A 26162.27025751 -.00000221 00000+0 00000+0 0 9996 
2 42818 0.0186 323.9975 0001707 111.6838 246.7558 1.00271003 32759 
1 42825U 17042A 26162.31244150 .00001935 00000+0 85377-4 0 9993 
2 42825 97.3588 67.9566 0001787 84.5866 275.5575 15.22950401494475 
1 42826U 17042B 26162.19257374 .00005363 00000+0 29864-3 0 9999 
2 42826 97.4439 330.0434 0008562 102.9674 257.2515 15.14007738486323 
1 42828U 17042D 26162.24161551 .00008869 00000+0 39288-3 0 9993 
2 42828 97.4033 335.7777 0010778 75.9362 284.3072 15.21810578486839 
1 42829U 17042E 26162.19870278 .00003039 00000+0 21801-3 0 9997 
2 42829 97.4261 320.0853 0018785 113.2228 247.0979 15.04916875485804 
1 42831U 17042G 26162.31957682 .00003348 00000+0 26502-3 0 9995 
2 42831 97.4660 318.0797 0019275 140.7203 219.5424 15.01107587485579 
1 42835U 17042L 26162.16176967 .00001969 00000+0 15564-3 0 9994 
2 42835 97.4829 318.5000 0010427 167.7200 192.4281 15.01736332485608 
1 42837U 17042N 26161.74817130 .00014567 00000+0 48598-3 0 9994 
2 42837 97.3819 342.4043 0009149 36.3346 323.8515 15.31129963487401 
1 42838U 17042P 26160.74878637 .00021256 00000+0 63563-3 0 9995 
2 42838 97.3682 341.5686 0008771 38.8690 321.3182 15.34551135487318 
1 42839U 17042Q 26162.00500459 .00012667 00000+0 46797-3 0 9997 
2 42839 97.4076 342.6414 0006828 27.7700 332.3903 15.27848617487227 
1 42840U 17042R 26161.41040731 .00016426 00000+0 56652-3 0 9993 
2 42840 97.3771 340.0388 0008501 89.8327 270.3888 15.30030493487172 
1 42841U 17042S 26162.22897928 .00017364 00000+0 53534-3 0 9990 
2 42841 97.3987 347.2515 0003723 20.0355 340.1033 15.33656035487528 
1 42842U 17042T 26162.01908772 .00014024 00000+0 48320-3 0 9995 
2 42842 97.3820 343.6620 0007274 49.2144 310.9727 15.30107084487400 
1 42844U 17042V 26161.99287445 .00010668 00000+0 43773-3 0 9997 
2 42844 97.3736 336.3731 0004961 51.9031 308.2653 15.24400952487136 
1 42845U 17042W 26162.25072406 .00038823 00000+0 69805-3 0 9994 
2 42845 97.3606 353.7641 0003323 55.3333 304.8231 15.49749100488289 
1 42846U 17042X 26162.01678434 .00002611 00000+0 18161-3 0 9997 
2 42846 97.4050 323.6077 0014191 129.5203 230.7282 15.06253815486139 
1 42847U 17042Y 26161.94567167 .00003247 00000+0 22394-3 0 9998 
2 42847 97.4079 324.3490 0013189 108.3664 251.8999 15.06422630486154 
1 42907U 17046A 26161.56271131 .00000154 00000+0 00000+0 0 9990 
2 42907 0.0454 86.1390 0001053 55.6369 4.7331 1.00271321 32333 
1 42915U 17047A 26162.19314483 -.00000085 00000+0 00000+0 0 9992 
2 42915 3.4500 2.5714 0014503 105.8675 209.1996 1.00271647 32288 
1 42917U 17048A 26162.00673280 -.00000331 00000+0 00000+0 0 9992 
2 42917 0.0636 171.4245 0002562 277.5648 299.7948 1.00267968 32190 
1 42920U 17049A 26162.25997839 .00000111 00000+0 39187-4 0 9991 
2 42920 98.2253 237.7012 0012706 100.6652 259.5974 14.50896594465812 
1 42921U 17050A 26162.21203113 .00002400 00000+0 11960-3 0 9996 
2 42921 0.0472 190.7363 0010393 333.3244 195.9720 15.00877958480140 
1 42934U 17053A 26160.32980735 -.00000266 00000+0 00000+0 0 9993 
2 42934 0.0312 323.9850 0002412 64.7103 286.7531 1.00270254 31962 
1 42939U 17055A 26161.08408941 .00000114 00000+0 00000+0 0 9999 
2 42939 64.0782 192.1263 0010679 240.0455 119.9210 2.13102025 67825 
1 42942U 17057A 26162.29092666 .00000000 00000+0 00000+0 0 9996 
2 42942 0.0386 44.0626 0002539 23.3223 59.1383 1.00264399 31801 
1 42945U 17058A 26162.15923429 .00002850 00000+0 20921-3 0 9998 
2 42945 34.9975 66.0268 0001070 102.0005 258.0823 15.03080095474988 
1 42946U 17058B 26162.15515925 .00002526 00000+0 18711-3 0 9991 
2 42946 34.9977 66.9192 0003145 265.3680 94.6669 15.02790014474950 
1 42947U 17058C 26162.16269207 .00003369 00000+0 23782-3 0 9992 
2 42947 34.9972 57.5095 0004215 167.3994 192.6821 15.04482913474915 
1 42950U 17059A 26162.19184481 -.00000124 00000+0 00000+0 0 9991 
2 42950 0.0179 10.9724 0002383 91.8332 207.7944 1.00269953 32007 
1 42951U 17059B 26160.00712714 -.00000334 00000+0 00000+0 0 9999 
2 42951 0.0365 6.7991 0004164 58.5529 304.4340 1.00272912 31712 
